[{"OBJECT_NAME":"NUSAT-31 (RUBY PAYNE-S)","OBJECT_ID":"2022-057W","EPOCH":"2026-03-09T23:27:39.741120","MEAN_MOTION":15.91995915,"ECCENTRICITY":0.00045753,"INCLINATION":97.6426,"RA_OF_ASC_NODE":238.4971,"ARG_OF_PERICENTER":294.3919,"MEAN_ANOMALY":65.6876,"EPHEMERIS_TYPE":0,"CLASSIFICATION_TYPE":"U","NORAD_CAT_ID":52752,"ELEMENT_SET_NO":999,"REV_AT_EPOCH":21201,"BSTAR":0.0011418287,"MEAN_MOTION_DOT":0.00375293,"MEAN_MOTION_DDOT":5.5791969e-5},{"OBJECT_NAME":"OBJECT R","OBJECT_ID":"2026-042R","EPOCH":"2026-03-09T18:00:02.000160","MEAN_MOTION":16.02612364,"ECCENTRICITY":8.392e-5,"INCLINATION":53.1604,"RA_OF_ASC_NODE":194.9801,"ARG_OF_PERICENTER":52.9907,"MEAN_ANOMALY":9.4935,"EPHEMERIS_TYPE":0,"CLASSIFICATION_TYPE":"U","NORAD_CAT_ID":68084,"ELEMENT_SET_NO":999,"REV_AT_EPOCH":206,"BSTAR":-0.0020913136,"MEAN_MOTION_DOT":-0.01276737,"MEAN_MOTION_DDOT":0.00053259454}]
